{"type": "FeatureCollection", "features": [ {"type": "Feature", "properties": {"norad_id": 34955, "name": "COSMOS 2251 DEB", "group": "cosmos-2251-debris", "lat": -18.004151960027126, "lon": 78.79803488632352, "alt_km": 601.3413050989348, "timestamp": "2025-12-09T07:41:33.607250+00:00", "meta": {"OBJECT_NAME": "COSMOS 2251 DEB", "OBJECT_ID": "1993-036AEJ", "EPOCH": "2025-12-08T11:36:06.384672", "MEAN_MOTION": 15.00395545, "ECCENTRICITY": 0.00780103, "INCLINATION": 74.0371, "RA_OF_ASC_NODE": 255.1619, "ARG_OF_PERICENTER": 325.897, "MEAN_ANOMALY": 33.7217, "EPHEMERIS_TYPE": 0, "CLASSIFICATION_TYPE": "U", "NORAD_CAT_ID": 34955, "ELEMENT_SET_NO": 999, "REV_AT_EPOCH": 89970, "BSTAR": 0.0010490569, "MEAN_MOTION_DOT": 0.00014048, "MEAN_MOTION_DDOT": 0}, "tle": {"line1": "1 34955U 93036AEJ 25342.48340723  .00014048  00000+0  10491-2 0  9997", "line2": "2 34955  74.0371 255.1619 0078010 325.8970  33.7217 15.00395545899702"}}, "geometry": {"type": "Point", "coordinates": [78.79803488632352, -18.004151960027126]}}, {"type": "Feature", "properties": {"norad_id": 34962, "name": "COSMOS 2251 DEB", "group": "cosmos-2251-debris", "lat": -62.255082545602185, "lon": 166.76619498067186, "alt_km": 731.3484788840306, "timestamp": "2025-12-09T07:41:33.607261+00:00", "meta": {"OBJECT_NAME": "COSMOS 2251 DEB", "OBJECT_ID": "1993-036AER", "EPOCH": "2025-12-08T00:27:49.418208", "MEAN_MOTION": 14.46495653, "ECCENTRICITY": 0.0018762, "INCLINATION": 74.0294, "RA_OF_ASC_NODE": 202.1816, "ARG_OF_PERICENTER": 315.4302, "MEAN_ANOMALY": 44.5347, "EPHEMERIS_TYPE": 0, "CLASSIFICATION_TYPE": "U", "NORAD_CAT_ID": 34962, "ELEMENT_SET_NO": 999, "REV_AT_EPOCH": 87510, "BSTAR": 0.00059226068, "MEAN_MOTION_DOT": 2.11e-05, "MEAN_MOTION_DDOT": 0}, "tle": {"line1": "1 34962U 93036AER 25342.01932197  .00002110  00000+0  59226-3 0  9993", "line2": "2 34962  74.0294 202.1816 0018762 315.4302  44.5347 14.46495653875109"}}, "geometry": {"type": "Point", "coordinates": [166.76619498067186, -62.255082545602185]}}, {"type": "Feature", "properties": {"norad_id": 34963, "name": "COSMOS 2251 DEB", "group": "cosmos-2251-debris", "lat": 42.784939112325105, "lon": -146.0980321469177, "alt_km": 729.2241547303429, "timestamp": "2025-12-09T07:41:33.607272+00:00", "meta": {"OBJECT_NAME": "COSMOS 2251 DEB", "OBJECT_ID": "1993-036AES", "EPOCH": "2025-12-08T12:52:00.806016", "MEAN_MOTION": 14.51014391, "ECCENTRICITY": 0.0042597, "INCLINATION": 74.1718, "RA_OF_ASC_NODE": 50.5866, "ARG_OF_PERICENTER": 247.8405, "MEAN_ANOMALY": 111.8233, "EPHEMERIS_TYPE": 0, "CLASSIFICATION_TYPE": "U", "NORAD_CAT_ID": 34963, "ELEMENT_SET_NO": 999, "REV_AT_EPOCH": 86740, "BSTAR": 0.0019565, "MEAN_MOTION_DOT": 7.813e-05, "MEAN_MOTION_DDOT": 0}, "tle": {"line1": "1 34963U 93036AES 25342.53612044  .00007813  00000+0  19565-2 0  9993", "line2": "2 34963  74.1718  50.5866 0042597 247.8405 111.8233 14.51014391867405"}}, "geometry": {"type": "Point", "coordinates": [-146.0980321469177, 42.784939112325105]}}, {"type": "Feature", "properties": {"norad_id": 34964, "name": "COSMOS 2251 DEB", "group": "cosmos-2251-debris", "lat": 51.09242974084821, "lon": 14.658033954419809, "alt_km": 1030.6424262993341, "timestamp": "2025-12-09T07:41:33.607282+00:00", "meta": {"OBJECT_NAME": "COSMOS 2251 DEB", "OBJECT_ID": "1993-036AET", "EPOCH": "2025-12-06T09:08:23.227296", "MEAN_MOTION": 14.00561346, "ECCENTRICITY": 0.02131727, "INCLINATION": 73.9719, "RA_OF_ASC_NODE": 358.9078, "ARG_OF_PERICENTER": 218.6047, "MEAN_ANOMALY": 139.9683, "EPHEMERIS_TYPE": 0, "CLASSIFICATION_TYPE": "U", "NORAD_CAT_ID": 34964, "ELEMENT_SET_NO": 999, "REV_AT_EPOCH": 84389, "BSTAR": 0.0026176283, "MEAN_MOTION_DOT": 4.714e-05, "MEAN_MOTION_DDOT": 0}, "tle": {"line1": "1 34964U 93036AET 25340.38082439  .00004714  00000+0  26176-2 0  9997", "line2": "2 34964  73.9719 358.9078 0213172 218.6047 139.9683 14.00561346843899"}}, "geometry": {"type": "Point", "coordinates": [14.658033954419809, 51.09242974084821]}}, {"type": "Feature", "properties": {"norad_id": 34965, "name": "COSMOS 2251 DEB", "group": "cosmos-2251-debris", "lat": -67.09580570146899, "lon": -2.5318581889787373, "alt_km": 718.191560721617, "timestamp": "2025-12-09T07:41:33.607293+00:00", "meta": {"OBJECT_NAME": "COSMOS 2251 DEB", "OBJECT_ID": "1993-036AEU", "EPOCH": "2025-12-08T17:16:00.005664", "MEAN_MOTION": 14.48691979, "ECCENTRICITY": 0.00265332, "INCLINATION": 74.0504, "RA_OF_ASC_NODE": 135.9933, "ARG_OF_PERICENTER": 263.8339, "MEAN_ANOMALY": 95.9798, "EPHEMERIS_TYPE": 0, "CLASSIFICATION_TYPE": "U", "NORAD_CAT_ID": 34965, "ELEMENT_SET_NO": 999, "REV_AT_EPOCH": 87055, "BSTAR": 0.00066763595, "MEAN_MOTION_DOT": 2.5e-05, "MEAN_MOTION_DDOT": 0}, "tle": {"line1": "1 34965U 93036AEU 25342.71944451  .00002500  00000+0  66764-3 0  9997", "line2": "2 34965  74.0504 135.9933 0026533 263.8339  95.9798 14.48691979870555"}}, "geometry": {"type": "Point", "coordinates": [-2.5318581889787373, -67.09580570146899]}}, {"type": "Feature", "properties": {"norad_id": 34967, "name": "COSMOS 2251 DEB", "group": "cosmos-2251-debris", "lat": -37.09816710674798, "lon": 92.77465721743222, "alt_km": 777.1559347064522, "timestamp": "2025-12-09T07:41:33.607303+00:00", "meta": {"OBJECT_NAME": "COSMOS 2251 DEB", "OBJECT_ID": "1993-036AEW", "EPOCH": "2025-12-08T12:23:52.050624", "MEAN_MOTION": 14.44233301, "ECCENTRICITY": 0.00378, "INCLINATION": 73.9938, "RA_OF_ASC_NODE": 261.7361, "ARG_OF_PERICENTER": 49.0398, "MEAN_ANOMALY": 311.4019, "EPHEMERIS_TYPE": 0, "CLASSIFICATION_TYPE": "U", "NORAD_CAT_ID": 34967, "ELEMENT_SET_NO": 999, "REV_AT_EPOCH": 64896, "BSTAR": 0.0012271, "MEAN_MOTION_DOT": 4.227e-05, "MEAN_MOTION_DDOT": 0}, "tle": {"line1": "1 34967U 93036AEW 25342.51657466  .00004227  00000+0  12271-2 0  9995", "line2": "2 34967  73.9938 261.7361 0037800  49.0398 311.4019 14.44233301648964"}}, "geometry": {"type": "Point", "coordinates": [92.77465721743222, -37.09816710674798]}}, {"type": "Feature", "properties": {"norad_id": 34968, "name": "COSMOS 2251 DEB", "group": "cosmos-2251-debris", "lat": -62.45189738005236, "lon": 106.86234382843253, "alt_km": 738.8515147764938, "timestamp": "2025-12-09T07:41:33.607313+00:00", "meta": {"OBJECT_NAME": "COSMOS 2251 DEB", "OBJECT_ID": "1993-036AEX", "EPOCH": "2025-12-08T00:56:51.838368", "MEAN_MOTION": 14.59392233, "ECCENTRICITY": 0.00863684, "INCLINATION": 74.0389, "RA_OF_ASC_NODE": 256.0282, "ARG_OF_PERICENTER": 17.5095, "MEAN_ANOMALY": 342.9015, "EPHEMERIS_TYPE": 0, "CLASSIFICATION_TYPE": "U", "NORAD_CAT_ID": 34968, "ELEMENT_SET_NO": 999, "REV_AT_EPOCH": 88409, "BSTAR": 0.0003041987, "MEAN_MOTION_DOT": 1.486e-05, "MEAN_MOTION_DDOT": 0}, "tle": {"line1": "1 34968U 93036AEX 25342.03948887  .00001486  00000+0  30420-3 0  9994", "line2": "2 34968  74.0389 256.0282 0086368  17.5095 342.9015 14.59392233884090"}}, "geometry": {"type": "Point", "coordinates": [106.86234382843253, -62.45189738005236]}}, {"type": "Feature", "properties": {"norad_id": 34969, "name": "COSMOS 2251 DEB", "group": "cosmos-2251-debris", "lat": -44.83429557900924, "lon": 12.832751850504772, "alt_km": 836.0424570837176, "timestamp": "2025-12-09T07:41:33.607353+00:00", "meta": {"OBJECT_NAME": "COSMOS 2251 DEB", "OBJECT_ID": "1993-036AEY", "EPOCH": "2025-12-08T20:10:51.809088", "MEAN_MOTION": 14.32246137, "ECCENTRICITY": 0.00738514, "INCLINATION": 74.0147, "RA_OF_ASC_NODE": 30.2676, "ARG_OF_PERICENTER": 164.4463, "MEAN_ANOMALY": 195.8982, "EPHEMERIS_TYPE": 0, "CLASSIFICATION_TYPE": "U", "NORAD_CAT_ID": 34969, "ELEMENT_SET_NO": 999, "REV_AT_EPOCH": 65081, "BSTAR": 0.00042631737, "MEAN_MOTION_DOT": 1.159e-05, "MEAN_MOTION_DDOT": 0}, "tle": {"line1": "1 34969U 93036AEY 25342.84087742  .00001159  00000+0  42632-3 0  9993", "line2": "2 34969  74.0147  30.2676 0073851 164.4463 195.8982 14.32246137650817"}}, "geometry": {"type": "Point", "coordinates": [12.832751850504772, -44.83429557900924]}}, {"type": "Feature", "properties": {"norad_id": 34971, "name": "COSMOS 2251 DEB", "group": "cosmos-2251-debris", "lat": -3.6093348224282127, "lon": -69.52509111502778, "alt_km": 757.4193056671711, "timestamp": "2025-12-09T07:41:33.607364+00:00", "meta": {"OBJECT_NAME": "COSMOS 2251 DEB", "OBJECT_ID": "1993-036AFA", "EPOCH": "2025-12-06T14:16:08.154912", "MEAN_MOTION": 14.55618796, "ECCENTRICITY": 0.00698698, "INCLINATION": 73.978, "RA_OF_ASC_NODE": 296.6954, "ARG_OF_PERICENTER": 163.9786, "MEAN_ANOMALY": 313.6169, "EPHEMERIS_TYPE": 0, "CLASSIFICATION_TYPE": "U", "NORAD_CAT_ID": 34971, "ELEMENT_SET_NO": 999, "REV_AT_EPOCH": 66083, "BSTAR": 0.00032064289, "MEAN_MOTION_DOT": 1.416e-05, "MEAN_MOTION_DDOT": 0}, "tle": {"line1": "1 34971U 93036AFA 25340.59453883  .00001416  00000+0  32064-3 0  9993", "line2": "2 34971  73.9780 296.6954 0069869 163.9786 313.6169 14.55618796660833"}}, "geometry": {"type": "Point", "coordinates": [-69.52509111502778, -3.6093348224282127]}}, {"type": "Feature", "properties": {"norad_id": 34972, "name": "COSMOS 2251 DEB", "group": "cosmos-2251-debris", "lat": 33.2048070629962, "lon": 67.36966562710717, "alt_km": 673.7668671486354, "timestamp": "2025-12-09T07:41:33.607375+00:00", "meta": {"OBJECT_NAME": "COSMOS 2251 DEB", "OBJECT_ID": "1993-036AFB", "EPOCH": "2025-12-08T15:48:53.888256", "MEAN_MOTION": 14.72769247, "ECCENTRICITY": 0.0034091, "INCLINATION": 73.9888, "RA_OF_ASC_NODE": 57.8286, "ARG_OF_PERICENTER": 217.3546, "MEAN_ANOMALY": 271.2674, "EPHEMERIS_TYPE": 0, "CLASSIFICATION_TYPE": "U", "NORAD_CAT_ID": 34972, "ELEMENT_SET_NO": 999, "REV_AT_EPOCH": 87590, "BSTAR": 0.0020432, "MEAN_MOTION_DOT": 0.00013168, "MEAN_MOTION_DDOT": 0}, "tle": {"line1": "1 34972U 93036AFB 25342.65895704  .00013168  00000+0  20432-2 0  9997", "line2": "2 34972  73.9888  57.8286 0034091 217.3546 271.2674 14.72769247875908"}}, "geometry": {"type": "Point", "coordinates": [67.36966562710717, 33.2048070629962]}}]}